NORAD_CAT_ID,OBJECT_NAME,OBJECT_TYPE,EPOCH,MEAN_MOTION,ECCENTRICITY,INCLINATION,RA_OF_ASC_NODE,ARG_OF_PERICENTER,MEAN_ANOMALY,BSTAR,MEAN_MOTION_DOT,MEAN_MOTION_DDOT,TLE_LINE0,TLE_LINE1,TLE_LINE2,SEMIMAJOR_AXIS,PERIOD,APOGEE,PERIGEE,DECAYED
56800.0,STARLINK-6036,PAYLOAD,2024-05-15 22:16:03,14.98359586,0.0002755,70.0024,215.562,271.0681,89.0162,-3.8977e-05,-5.58e-06,0.0,0 STARLINK-6036,1 56800U 23078AK  24136.92781513 -.00000558  00000-0 -38977-4 0  9999,2 56800  70.0024 215.5620 0002755 271.0681  89.0162 14.98359586 53405,6950.101,96.105,573.881,570.052,0.0
56800.0,STARLINK-6036,PAYLOAD,2024-05-16 11:05:07,14.98355495,0.0002763,69.9993,214.2142,264.7133,95.371,-3.1987e-05,-4.75e-06,0.0,0 STARLINK-6036,1 56800U 23078AK  24137.46189130 -.00000475  00000-0 -31987-4 0  9998,2 56800  69.9993 214.2142 0002763 264.7133  95.3710 14.98355495 53743,6950.114,96.105,573.899,570.059,0.0
56800.0,STARLINK-6036,PAYLOAD,2024-05-16 22:18:03,14.98357291,0.0002997,70.0001,213.037,279.2934,80.7886,-9.4589e-05,-1.222e-05,0.0,0 STARLINK-6036,1 56800U 23078AK  24137.92920366 -.00001222  00000-0 -94589-4 0  9991,2 56800  70.0001 213.0370 0002997 279.2934  80.7886 14.98357291 53552,6950.108,96.105,574.056,569.891,0.0
56800.0,STARLINK-6036,PAYLOAD,2024-05-17 11:07:08,14.98339766,0.0002564,70.0013,211.6939,272.9236,87.163,-0.00019747,-2.449e-05,0.0,0 STARLINK-6036,1 56800U 23078AK  24138.46329291 -.00002449  00000-0 -19747-3 0  9995,2 56800  70.0013 211.6939 0002564 272.9236  87.1630 14.98339766 53897,6950.163,96.106,573.81,570.246,0.0
56800.0,STARLINK-6036,PAYLOAD,2024-05-17 22:20:04,14.98338665,0.0002927,70.0002,210.515,279.182,80.9008,-0.00024659,-3.035e-05,0.0,0 STARLINK-6036,1 56800U 23078AK  24138.93061181 -.00003035  00000-0 -24659-3 0  9998,2 56800  70.0002 210.5150 0002927 279.1820  80.9008 14.98338665 53706,6950.166,96.106,574.065,569.997,0.0
56800.0,STARLINK-6036,PAYLOAD,2024-05-18 04:44:37,14.98328394,0.0002646,70.0003,209.8419,274.2479,85.8378,-0.00014519,-1.825e-05,0.0,0 STARLINK-6036,1 56800U 23078AK  24139.19765573 -.00001825  00000-0 -14519-3 0  9992,2 56800  70.0003 209.8419 0002646 274.2479  85.8378 14.98328394 54006,6950.198,96.107,573.902,570.224,0.0
56800.0,STARLINK-6036,PAYLOAD,2024-05-18 12:45:16,14.98338205,0.0002774,69.9997,208.9977,269.2165,90.8676,-7.8427e-05,-1.029e-05,0.0,0 STARLINK-6036,1 56800U 23078AK  24139.53144665 -.00001029  00000-0 -78427-4 0  9998,2 56800  69.9997 208.9977 0002774 269.2165  90.8676 14.98338205 54056,6950.168,96.106,573.96,570.105,0.0
56800.0,STARLINK-6036,PAYLOAD,2024-05-18 14:21:24,14.9834101,0.0002738,70.0,208.8298,269.7226,90.3619,-3.7427e-05,-5.4e-06,0.0,0 STARLINK-6036,1 56800U 23078AK  24139.59820346 -.00000540  00000-0 -37427-4 0  9993,2 56800  70.0000 208.8298 0002738 269.7226  90.3619 14.98341010 53804,6950.159,96.106,573.927,570.121,0.0
56800.0,STARLINK-6036,PAYLOAD,2024-05-18 22:22:06,14.98324432,0.0003073,69.9995,207.9873,270.8396,89.2411,-0.00020199,-2.502e-05,0.0,0 STARLINK-6036,1 56800U 23078AK  24139.93201683 -.00002502  00000-0 -20199-3 0  9995,2 56800  69.9995 207.9873 0003073 270.8396  89.2411 14.98324432 53858,6950.21,96.107,574.211,569.939,0.0
56800.0,STARLINK-6036,PAYLOAD,2024-05-19 04:46:39,14.98312398,0.0002532,69.9999,207.3165,275.8752,84.2118,-3.03e-05,-4.54e-06,0.0,0 STARLINK-6036,1 56800U 23078AK  24140.19906359 -.00000454  00000-0 -30300-4 0  9997,2 56800  69.9999 207.3165 0002532 275.8752  84.2118 14.98312398 54151,6950.247,96.108,573.872,570.353,0.0
56800.0,STARLINK-6036,PAYLOAD,2024-05-19 12:47:19,14.98312046,0.0002729,70.0003,206.4738,270.2456,89.839,-0.00010445,-1.338e-05,0.0,0 STARLINK-6036,1 56800U 23078AK  24140.53286894 -.00001338  00000-0 -10445-3 0  9999,2 56800  70.0003 206.4738 0002729 270.2456  89.8390 14.98312046 53943,6950.248,96.108,574.01,570.217,0.0
56800.0,STARLINK-6036,PAYLOAD,2024-05-20 04:48:39,14.9832641,0.0003347,69.9984,204.7895,267.5503,92.5273,9.4813e-05,1.038e-05,0.0,0 STARLINK-6036,1 56800U 23078AK  24141.20045625  .00001038  00000-0  94813-4 0  9996,2 56800  69.9984 204.7895 0003347 267.5503  92.5273 14.98326410 54304,6950.204,96.107,574.395,569.743,0.0
56800.0,STARLINK-6036,PAYLOAD,2024-05-20 12:49:18,14.98339171,0.0002878,69.9995,203.9488,266.0289,94.0541,0.00017482,1.994e-05,0.0,0 STARLINK-6036,1 56800U 23078AK  24141.53424633  .00001994  00000-0  17482-3 0  9999,2 56800  69.9995 203.9488 0002878 266.0289  94.0541 14.98339171 54356,6950.165,96.106,574.03,570.029,0.0
56800.0,STARLINK-6036,PAYLOAD,2024-05-20 14:25:26,14.9834411,0.0002878,70.0,203.7817,269.411,90.672,0.00013737,1.547e-05,0.0,0 STARLINK-6036,1 56800U 23078AK  24141.60100404  .00001547  00000-0  13737-3 0  9997,2 56800  70.0000 203.7817 0002878 269.4110  90.6720 14.98344110 54103,6950.149,96.106,574.015,570.014,0.0
56800.0,STARLINK-6036,PAYLOAD,2024-05-21 12:51:21,14.98323439,0.0002788,69.9993,201.4248,269.7071,90.3769,-0.00024891,-3.061e-05,0.0,0 STARLINK-6036,1 56800U 23078AK  24142.53566285 -.00003061  00000-0 -24891-3 0  9991,2 56800  69.9993 201.4248 0002788 269.7071  90.3769 14.98323439 54508,6950.213,96.107,574.016,570.14,0.0
56800.0,STARLINK-6036,PAYLOAD,2024-05-22 11:17:13,14.98335504,0.0003022,69.9995,199.0696,264.6148,95.4666,-0.0001406,-1.77e-05,0.0,0 STARLINK-6036,1 56800U 23078AK  24143.47029400 -.00001770  00000-0 -14060-3 0  9990,2 56800  69.9995 199.0696 0003022 264.6148  95.4666 14.98335504 54643,6950.176,96.107,574.141,569.941,0.0
56800.0,STARLINK-6036,PAYLOAD,2024-05-23 12:55:21,14.98356353,0.0003024,69.9997,196.3761,265.5598,94.5215,-0.00040221,-4.892e-05,0.0,0 STARLINK-6036,1 56800U 23078AK  24144.53844428 -.00004892  00000-0 -40221-3 0  9999,2 56800  69.9997 196.3761 0003024 265.5598  94.5215 14.98356353 54802,6950.111,96.105,574.078,569.875,0.0
56800.0,STARLINK-6036,PAYLOAD,2024-05-24 04:56:42,14.98331927,0.0002994,69.9995,194.693,264.434,95.6478,6.9813e-05,7.4e-06,0.0,0 STARLINK-6036,1 56800U 23078AK  24145.20605144  .00000740  00000-0  69813-4 0  9999,2 56800  69.9995 194.6930 0002994 264.4340  95.6478 14.98331927 54901,6950.187,96.107,574.133,569.971,0.0
56800.0,STARLINK-6036,PAYLOAD,2024-05-24 12:57:22,14.98334608,0.0002974,69.9997,193.8514,264.8619,95.2201,9.2597e-05,1.012e-05,0.0,0 STARLINK-6036,1 56800U 23078AK  24145.53984845  .00001012  00000-0  92597-4 0  9991,2 56800  69.9997 193.8514 0002974 264.8619  95.2201 14.98334608 54698,6950.179,96.107,574.111,569.977,0.0
56800.0,STARLINK-6036,PAYLOAD,2024-05-25 04:58:44,14.983256,0.0002456,70.0012,192.1701,249.696,110.3935,5.3485e-06,-2.9e-07,0.0,0 STARLINK-6036,1 56800U 23078AK  24146.20745673 -.00000029  00000-0  53485-5 0  9992,2 56800  70.0012 192.1701 0002456 249.6960 110.3935 14.98325600 55050,6950.206,96.107,573.778,570.365,0.0
56800.0,STARLINK-6036,PAYLOAD,2024-05-25 12:59:24,14.9832535,0.0003039,69.9991,191.3257,268.5707,91.5104,-3.0289e-05,-4.54e-06,0.0,0 STARLINK-6036,1 56800U 23078AK  24146.54125890 -.00000454  00000-0 -30289-4 0  9991,2 56800  69.9991 191.3257 0003039 268.5707  91.5104 14.98325350 54843,6950.207,96.107,574.184,569.96,0.0
56800.0,STARLINK-6036,PAYLOAD,2024-05-26 05:00:44,14.9833093,0.0003321,69.9985,189.6408,272.8725,87.2053,2.4475e-05,1.99e-06,0.0,0 STARLINK-6036,1 56800U 23078AK  24147.20885321  .00000199  00000-0  24475-4 0  9991,2 56800  69.9985 189.6408 0003321 272.8725  87.2053 14.98330930 55202,6950.19,96.107,574.363,569.747,0.0
56800.0,STARLINK-6036,PAYLOAD,2024-05-26 13:01:24,14.98335877,0.0003205,69.9988,188.8004,271.0621,89.0171,4.2582e-05,4.15e-06,0.0,0 STARLINK-6036,1 56800U 23078AK  24147.54264865  .00000415  00000-0  42582-4 0  9992,2 56800  69.9988 188.8004 0003205 271.0621  89.0171 14.98335877 54996,6950.175,96.107,574.267,569.812,0.0
56800.0,STARLINK-6036,PAYLOAD,2024-05-26 19:25:56,14.98354306,0.0002822,69.9996,188.127,268.964,91.1195,-9.1235e-05,-1.182e-05,0.0,0 STARLINK-6036,1 56800U 23078AK  24147.80968018 -.00001182  00000-0 -91235-4 0  9995,2 56800  69.9996 188.1270 0002822 268.9640  91.1195 14.98354306 55295,6950.118,96.105,573.944,570.021,0.0
56800.0,STARLINK-6036,PAYLOAD,2024-05-27 05:02:46,14.98325516,0.000301,69.999,187.1175,269.888,90.1934,5.4283e-05,5.55e-06,0.0,0 STARLINK-6036,1 56800U 23078AK  24148.21025469  .00000555  00000-0  54283-4 0  9998,2 56800  69.9990 187.1175 0003010 269.8880  90.1934 14.98325516 55356,6950.207,96.107,574.164,569.98,0.0
56800.0,STARLINK-6036,PAYLOAD,2024-05-27 13:03:25,14.98348442,0.0002667,69.9993,186.2759,270.4112,89.6741,-0.00034417,-4.199e-05,0.0,0 STARLINK-6036,1 56800U 23078AK  24148.54404936 -.00004199  00000-0 -34417-3 0  9990,2 56800  69.9993 186.2759 0002667 270.4112  89.6741 14.98348442 55408,6950.136,96.106,573.854,570.147,0.0
56800.0,STARLINK-6036,PAYLOAD,2024-05-28 03:28:38,14.98334621,0.0002998,69.9991,184.7608,266.2642,93.8174,2.6613e-06,-6.1e-07,0.0,0 STARLINK-6036,1 56800U 23078AK  24149.14489035 -.00000061  00000-0  26613-5 0  9994,2 56800  69.9991 184.7608 0002998 266.2642  93.8174 14.98334621 55490,6950.179,96.107,574.127,569.96,0.0
56800.0,STARLINK-6036,PAYLOAD,2024-05-28 11:29:18,14.98333907,0.0003031,69.999,183.9193,265.8287,94.2526,-7.0457e-06,-1.77e-06,0.0,0 STARLINK-6036,1 56800U 23078AK  24149.47869011 -.00000177  00000-0 -70457-5 0  9990,2 56800  69.9990 183.9193 0003031 265.8287  94.2526 14.98333907 55287,6950.181,96.107,574.152,569.939,0.0
56800.0,STARLINK-6036,PAYLOAD,2024-05-29 05:06:47,14.98328964,0.0003109,69.9987,182.0676,266.4781,93.6023,1.2761e-05,5.9e-07,0.0,0 STARLINK-6036,1 56800U 23078AK  24150.21305154  .00000059  00000-0  12761-4 0  9997,2 56800  69.9987 182.0676 0003109 266.4781  93.6023 14.98328964 55654,6950.196,96.107,574.222,569.9,0.0
56800.0,STARLINK-6036,PAYLOAD,2024-05-29 11:31:20,14.98327871,0.0003163,69.9985,181.394,268.8552,91.2245,-2.7552e-06,-1.26e-06,0.0,0 STARLINK-6036,1 56800U 23078AK  24150.48009299 -.00000126  00000-0 -27552-5 0  9999,2 56800  69.9985 181.3940 0003163 268.8552  91.2245 14.98327871 55432,6950.199,96.107,574.263,569.866,0.0
